start=new Date('2022-07-29T00:00:00.000Z').valueOf();
sats=[{"INCLINATION":"53.0536","COUNTRY_CODE":"US","ECCENTRICITY":"0.00013700","DECAY_DATE":null,"TIME_SYSTEM":"UTC","FILE":"3523822","CLASSIFICATION_TYPE":"U","REF_FRAME":"TEME","TLE_LINE2":"2 48316  53.0536 258.1766 0001370  66.3529 293.7604 15.06404430 69837","MEAN_MOTION_DOT":"0.00000115","LAUNCH_DATE":"2021-04-29","OBJECT_TYPE":"PAYLOAD","SEMIMAJOR_AXIS":"6925.335","MEAN_ELEMENT_THEORY":"SGP4","TLE_LINE1":"1 48316U 21036AS  22209.50055039  .00000115  00000-0  26637-4 0  9991","RCS_SIZE":"LARGE","MEAN_ANOMALY":"293.7604","ARG_OF_PERICENTER":"66.3529","CENTER_NAME":"EARTH","BSTAR":"0.00002663700000","APOAPSIS":"548.149","OBJECT_NAME":"STARLINK-2507","OBJECT_ID":"2021-036AS","REV_AT_EPOCH":"6983","MEAN_MOTION_DDOT":"0.0000000000000","SITE":"AFETR","EPOCH":"2022-07-28T12:00:47.553696","ELEMENT_SET_NO":"999","NORAD_CAT_ID":"48316","GP_ID":"209037451","PERIOD":"95.592","EPHEMERIS_TYPE":"0","MEAN_MOTION":"15.06404430","PERIAPSIS":"546.251","RA_OF_ASC_NODE":"258.1766"},{"ELEMENT_SET_NO":"999","GP_ID":"209065819","NORAD_CAT_ID":"48317","EPHEMERIS_TYPE":"0","PERIOD":"95.592","RA_OF_ASC_NODE":"257.6012","MEAN_MOTION":"15.06399748","PERIAPSIS":"546.272","BSTAR":"0.00028151000000","OBJECT_NAME":"STARLINK-2513","OBJECT_ID":"2021-036AT","APOAPSIS":"548.156","MEAN_MOTION_DDOT":"0.0000000000000","REV_AT_EPOCH":"6920","EPOCH":"2022-07-28T15:06:36.154368","SITE":"AFETR","RCS_SIZE":"LARGE","TLE_LINE1":"1 48317U 21036AT  22209.62958512  .00003914  00000-0  28151-3 0  9995","MEAN_ELEMENT_THEORY":"SGP4","CENTER_NAME":"EARTH","ARG_OF_PERICENTER":"71.8371","MEAN_ANOMALY":"288.2766","TIME_SYSTEM":"UTC","DECAY_DATE":null,"ECCENTRICITY":"0.00013600","COUNTRY_CODE":"US","INCLINATION":"53.0519","TLE_LINE2":"2 48317  53.0519 257.6012 0001360  71.8371 288.2766 15.06399748 69206","REF_FRAME":"TEME","FILE":"3524113","CLASSIFICATION_TYPE":"U","SEMIMAJOR_AXIS":"6925.349","OBJECT_TYPE":"PAYLOAD","LAUNCH_DATE":"2021-04-29","MEAN_MOTION_DOT":"0.00003914"},{"ELEMENT_SET_NO":"999","NORAD_CAT_ID":"48318","GP_ID":"209037503","EPHEMERIS_TYPE":"0","PERIOD":"95.592","PERIAPSIS":"546.226","MEAN_MOTION":"15.06408983","RA_OF_ASC_NODE":"267.9469","BSTAR":"0.00024766000000","OBJECT_NAME":"STARLINK-2509","OBJECT_ID":"2021-036AU","APOAPSIS":"548.146","REV_AT_EPOCH":"6969","MEAN_MOTION_DDOT":"0.0000000000000","SITE":"AFETR","EPOCH":"2022-07-28T13:19:05.554560","MEAN_ELEMENT_THEORY":"SGP4","TLE_LINE1":"1 48318U 21036AU  22209.55492540  .00003410  00000-0  24766-3 0  9991","RCS_SIZE":"LARGE","ARG_OF_PERICENTER":"60.7270","MEAN_ANOMALY":"299.3858","CENTER_NAME":"EARTH","INCLINATION":"53.0533","TIME_SYSTEM":"UTC","DECAY_DATE":null,"COUNTRY_CODE":"US","ECCENTRICITY":"0.00013860","FILE":"3523826","CLASSIFICATION_TYPE":"U","TLE_LINE2":"2 48318  53.0533 267.9469 0001386  60.7270 299.3858 15.06408983 69696","REF_FRAME":"TEME","MEAN_MOTION_DOT":"0.00003410","SEMIMAJOR_AXIS":"6925.321","LAUNCH_DATE":"2021-04-29","OBJECT_TYPE":"PAYLOAD"},{"PERIOD":"95.593","EPHEMERIS_TYPE":"0","MEAN_MOTION":"15.06393750","PERIAPSIS":"546.280","RA_OF_ASC_NODE":"268.2519","ELEMENT_SET_NO":"999","GP_ID":"209037866","NORAD_CAT_ID":"48319","REV_AT_EPOCH":"6968","MEAN_MOTION_DDOT":"0.0000000000000","SITE":"AFETR","EPOCH":"2022-07-28T11:36:53.305056","BSTAR":"0.00002291800000","APOAPSIS":"548.186","OBJECT_NAME":"STARLINK-2512","OBJECT_ID":"2021-036AV","MEAN_ANOMALY":"288.4143","ARG_OF_PERICENTER":"71.6995","CENTER_NAME":"EARTH","TLE_LINE1":"1 48319U 21036AV  22209.48395029  .00000060  00000-0  22918-4 0  9994","MEAN_ELEMENT_THEORY":"SGP4","RCS_SIZE":"LARGE","CLASSIFICATION_TYPE":"U","FILE":"3523826","REF_FRAME":"TEME","TLE_LINE2":"2 48319  53.0543 268.2519 0001376  71.6995 288.4143 15.06393750 69682","MEAN_MOTION_DOT":"0.00000060","OBJECT_TYPE":"PAYLOAD","LAUNCH_DATE":"2021-04-29","SEMIMAJOR_AXIS":"6925.368","INCLINATION":"53.0543","COUNTRY_CODE":"US","ECCENTRICITY":"0.00013760","TIME_SYSTEM":"UTC","DECAY_DATE":null},{"BSTAR":"0.00006330800000","APOAPSIS":"547.803","OBJECT_ID":"2021-036AW","OBJECT_NAME":"STARLINK-2029","MEAN_MOTION_DDOT":"0.0000000000000","REV_AT_EPOCH":"6907","EPOCH":"2022-07-28T16:19:32.979648","SITE":"AFETR","ELEMENT_SET_NO":"999","GP_ID":"209065068","NORAD_CAT_ID":"48320","PERIOD":"95.592","EPHEMERIS_TYPE":"0","RA_OF_ASC_NODE":"267.3839","PERIAPSIS":"546.623","MEAN_MOTION":"15.06400083","ECCENTRICITY":"0.00008520","COUNTRY_CODE":"US","TIME_SYSTEM":"UTC","DECAY_DATE":null,"INCLINATION":"53.0550","REF_FRAME":"TEME","TLE_LINE2":"2 48320  53.0550 267.3839 0000852  67.8591 292.2488 15.06400083 69070","FILE":"3524113","CLASSIFICATION_TYPE":"U","LAUNCH_DATE":"2021-04-29","OBJECT_TYPE":"PAYLOAD","SEMIMAJOR_AXIS":"6925.348","MEAN_MOTION_DOT":"0.00000662","RCS_SIZE":"LARGE","TLE_LINE1":"1 48320U 21036AW  22209.68024282  .00000662  00000-0  63308-4 0  9994","MEAN_ELEMENT_THEORY":"SGP4","CENTER_NAME":"EARTH","MEAN_ANOMALY":"292.2488","ARG_OF_PERICENTER":"67.8591"},{"RA_OF_ASC_NODE":"267.9887","MEAN_MOTION":"15.06398622","PERIAPSIS":"546.222","EPHEMERIS_TYPE":"0","PERIOD":"95.592","GP_ID":"209037924","NORAD_CAT_ID":"48321","ELEMENT_SET_NO":"999","EPOCH":"2022-07-28T13:03:09.958464","SITE":"AFETR","MEAN_MOTION_DDOT":"0.0000000000000","REV_AT_EPOCH":"6964","OBJECT_ID":"2021-036AX","OBJECT_NAME":"STARLINK-2457","APOAPSIS":"548.214","BSTAR":"0.00000696500000","CENTER_NAME":"EARTH","ARG_OF_PERICENTER":"63.9136","MEAN_ANOMALY":"296.2000","RCS_SIZE":"LARGE","MEAN_ELEMENT_THEORY":"SGP4","TLE_LINE1":"1 48321U 21036AX  22209.54386526 -.00000178  00000-0  69650-5 0  9992","SEMIMAJOR_AXIS":"6925.353","OBJECT_TYPE":"PAYLOAD","LAUNCH_DATE":"2021-04-29","MEAN_MOTION_DOT":"-0.00000178","TLE_LINE2":"2 48321  53.0544 267.9887 0001438  63.9136 296.2000 15.06398622 69648","REF_FRAME":"TEME","FILE":"3523829","CLASSIFICATION_TYPE":"U","TIME_SYSTEM":"UTC","DECAY_DATE":null,"COUNTRY_CODE":"US","ECCENTRICITY":"0.00014380","INCLINATION":"53.0544"},{"ELEMENT_SET_NO":"999","NORAD_CAT_ID":"48322","GP_ID":"209066571","PERIOD":"95.592","EPHEMERIS_TYPE":"0","RA_OF_ASC_NODE":"268.0027","MEAN_MOTION":"15.06401995","PERIAPSIS":"546.328","BSTAR":"0.00019300000000","APOAPSIS":"548.087","OBJECT_ID":"2021-036AY","OBJECT_NAME":"STARLINK-2477","MEAN_MOTION_DDOT":"0.0000000000000","REV_AT_EPOCH":"6905","EPOCH":"2022-07-28T12:57:51.516576","SITE":"AFETR","RCS_SIZE":"LARGE","TLE_LINE1":"1 48322U 21036AY  22209.54017959  .00002595  00000-0  19300-3 0  9993","MEAN_ELEMENT_THEORY":"SGP4","CENTER_NAME":"EARTH","MEAN_ANOMALY":"274.7604","ARG_OF_PERICENTER":"85.3530","ECCENTRICITY":"0.00012700","COUNTRY_CODE":"US","DECAY_DATE":null,"TIME_SYSTEM":"UTC","INCLINATION":"53.0554","REF_FRAME":"TEME","TLE_LINE2":"2 48322  53.0554 268.0027 0001270  85.3530 274.7604 15.06401995 69052","FILE":"3524113","CLASSIFICATION_TYPE":"U","LAUNCH_DATE":"2021-04-29","OBJECT_TYPE":"PAYLOAD","SEMIMAJOR_AXIS":"6925.342","MEAN_MOTION_DOT":"0.00002595"},{"FILE":"3524113","CLASSIFICATION_TYPE":"U","REF_FRAME":"TEME","TLE_LINE2":"2 48323  53.0540 268.0170 0001423  76.4682 283.6465 15.06401011 69059","MEAN_MOTION_DOT":"0.00000487","LAUNCH_DATE":"2021-04-29","OBJECT_TYPE":"PAYLOAD","SEMIMAJOR_AXIS":"6925.345","INCLINATION":"53.0540","COUNTRY_CODE":"US","ECCENTRICITY":"0.00014230","DECAY_DATE":null,"TIME_SYSTEM":"UTC","MEAN_ANOMALY":"283.6465","ARG_OF_PERICENTER":"76.4682","CENTER_NAME":"EARTH","MEAN_ELEMENT_THEORY":"SGP4","TLE_LINE1":"1 48323U 21036AZ  22209.53649619  .00000487  00000-0  51605-4 0  9990","RCS_SIZE":"LARGE","REV_AT_EPOCH":"6905","MEAN_MOTION_DDOT":"0.0000000000000","SITE":"AFETR","EPOCH":"2022-07-28T12:52:33.270816","BSTAR":"0.00005160500000","APOAPSIS":"548.196","OBJECT_NAME":"STARLINK-2515","OBJECT_ID":"2021-036AZ","PERIOD":"95.592","EPHEMERIS_TYPE":"0","MEAN_MOTION":"15.06401011","PERIAPSIS":"546.225","RA_OF_ASC_NODE":"268.0170","ELEMENT_SET_NO":"999","GP_ID":"209066819","NORAD_CAT_ID":"48323"},{"TLE_LINE2":"2 48324  53.0532 267.4223 0001430  71.8522 288.2622 15.06404363 69063","REF_FRAME":"TEME","CLASSIFICATION_TYPE":"U","FILE":"3524113","SEMIMAJOR_AXIS":"6925.335","OBJECT_TYPE":"PAYLOAD","LAUNCH_DATE":"2021-04-29","MEAN_MOTION_DOT":"0.00000766","DECAY_DATE":null,"TIME_SYSTEM":"UTC","ECCENTRICITY":"0.00014300","COUNTRY_CODE":"US","INCLINATION":"53.0532","CENTER_NAME":"EARTH","ARG_OF_PERICENTER":"71.8522","MEAN_ANOMALY":"288.2622","RCS_SIZE":"LARGE","MEAN_ELEMENT_THEORY":"SGP4","TLE_LINE1":"1 48324U 21036BA  22209.66454966  .00000766  00000-0  70280-4 0  9994","MEAN_MOTION_DDOT":"0.0000000000000","REV_AT_EPOCH":"6906","EPOCH":"2022-07-28T15:56:57.090624","SITE":"AFETR","BSTAR":"0.00007028000000","OBJECT_NAME":"STARLINK-2527","OBJECT_ID":"2021-036BA","APOAPSIS":"548.191","EPHEMERIS_TYPE":"0","PERIOD":"95.592","RA_OF_ASC_NODE":"267.4223","PERIAPSIS":"546.210","MEAN_MOTION":"15.06404363","ELEMENT_SET_NO":"999","NORAD_CAT_ID":"48324","GP_ID":"209065569"},{"BSTAR":"0.00002264400000","APOAPSIS":"548.168","OBJECT_ID":"2021-036BB","OBJECT_NAME":"STARLINK-2495","REV_AT_EPOCH":"6907","MEAN_MOTION_DDOT":"0.0000000000000","SITE":"AFETR","EPOCH":"2022-07-28T15:52:59.953728","ELEMENT_SET_NO":"999","GP_ID":"209065820","NORAD_CAT_ID":"48325","PERIOD":"95.592","EPHEMERIS_TYPE":"0","MEAN_MOTION":"15.06409383","PERIAPSIS":"546.202","RA_OF_ASC_NODE":"267.4685","INCLINATION":"53.0548","ECCENTRICITY":"0.00014190","COUNTRY_CODE":"US","TIME_SYSTEM":"UTC","DECAY_DATE":null,"FILE":"3524113","CLASSIFICATION_TYPE":"U","REF_FRAME":"TEME","TLE_LINE2":"2 48325  53.0548 267.4685 0001419  60.4441 299.6689 15.06409383 69071","MEAN_MOTION_DOT":"0.00000056","LAUNCH_DATE":"2021-04-29","OBJECT_TYPE":"PAYLOAD","SEMIMAJOR_AXIS":"6925.320","MEAN_ELEMENT_THEORY":"SGP4","TLE_LINE1":"1 48325U 21036BB  22209.66180502  .00000056  00000-0  22644-4 0  9990","RCS_SIZE":"LARGE","MEAN_ANOMALY":"299.6689","ARG_OF_PERICENTER":"60.4441","CENTER_NAME":"EARTH"}];
